{
  "0": {
    "id": 0,
    "name": "Sensor 0",
    "highway": "I-80",
    "lat": 37.79362692812527,
    "lon": -122.43483116448134,
    "direction": "EB"
  },
  "1": {
    "id": 1,
    "name": "Sensor 1",
    "highway": "I-880",
    "lat": 37.38735596338262,
    "lon": -122.10626251232252,
    "direction": "NB"
  },
  "2": {
    "id": 2,
    "name": "Sensor 2",
    "highway": "I-280",
    "lat": 37.3,
    "lon": -122.275234138386,
    "direction": "NB"
  },
  "3": {
    "id": 3,
    "name": "Sensor 3",
    "highway": "US-101",
    "lat": 37.33587443689616,
    "lon": -122.22259581317299,
    "direction": "NB"
  },
  "4": {
    "id": 4,
    "name": "Sensor 4",
    "highway": "I-80",
    "lat": 37.78533767454954,
    "lon": -122.40753666741784,
    "direction": "EB"
  },
  "5": {
    "id": 5,
    "name": "Sensor 5",
    "highway": "I-880",
    "lat": 37.38706059829382,
    "lon": -122.10524604995548,
    "direction": "NB"
  },
  "6": {
    "id": 6,
    "name": "Sensor 6",
    "highway": "I-280",
    "lat": 37.32672315199086,
    "lon": -122.30569114377177,
    "direction": "NB"
  },
  "7": {
    "id": 7,
    "name": "Sensor 7",
    "highway": "US-101",
    "lat": 37.300552080748425,
    "lon": -122.19431817309261,
    "direction": "NB"
  },
  "8": {
    "id": 8,
    "name": "Sensor 8",
    "highway": "I-80",
    "lat": 37.79967851467321,
    "lon": -122.361208793492,
    "direction": "EB"
  },
  "9": {
    "id": 9,
    "name": "Sensor 9",
    "highway": "I-880",
    "lat": 37.43427203269067,
    "lon": -122.08102185307324,
    "direction": "NB"
  },
  "10": {
    "id": 10,
    "name": "Sensor 10",
    "highway": "I-280",
    "lat": 37.33428755204872,
    "lon": -122.30053172891621,
    "direction": "NB"
  },
  "11": {
    "id": 11,
    "name": "Sensor 11",
    "highway": "US-101",
    "lat": 37.334981001012004,
    "lon": -122.19329815600099,
    "direction": "NB"
  },
  "12": {
    "id": 12,
    "name": "Sensor 12",
    "highway": "I-80",
    "lat": 37.784086423455875,
    "lon": -122.40953709182034,
    "direction": "EB"
  },
  "13": {
    "id": 13,
    "name": "Sensor 13",
    "highway": "I-880",
    "lat": 37.43139504009396,
    "lon": -122.09205243758905,
    "direction": "NB"
  },
  "14": {
    "id": 14,
    "name": "Sensor 14",
    "highway": "I-280",
    "lat": 37.31733570439577,
    "lon": -122.28714788451177,
    "direction": "NB"
  },
  "15": {
    "id": 15,
    "name": "Sensor 15",
    "highway": "US-101",
    "lat": 37.33765456085856,
    "lon": -122.19073550418919,
    "direction": "NB"
  },
  "16": {
    "id": 16,
    "name": "Sensor 16",
    "highway": "I-80",
    "lat": 37.80519433857815,
    "lon": -122.38885309918305,
    "direction": "EB"
  },
  "17": {
    "id": 17,
    "name": "Sensor 17",
    "highway": "I-880",
    "lat": 37.44378692658911,
    "lon": -122.09136159810714,
    "direction": "NB"
  },
  "18": {
    "id": 18,
    "name": "Sensor 18",
    "highway": "I-280",
    "lat": 37.336669520544,
    "lon": -122.27886809115434,
    "direction": "NB"
  },
  "19": {
    "id": 19,
    "name": "Sensor 19",
    "highway": "US-101",
    "lat": 37.35188033304797,
    "lon": -122.19186682963702,
    "direction": "NB"
  },
  "20": {
    "id": 20,
    "name": "Sensor 20",
    "highway": "I-80",
    "lat": 37.80665984642949,
    "lon": -122.34622738135326,
    "direction": "EB"
  },
  "21": {
    "id": 21,
    "name": "Sensor 21",
    "highway": "I-880",
    "lat": 37.42306225316163,
    "lon": -122.09733807587634,
    "direction": "NB"
  },
  "22": {
    "id": 22,
    "name": "Sensor 22",
    "highway": "I-280",
    "lat": 37.34657876527655,
    "lon": -122.30824249609176,
    "direction": "NB"
  },
  "23": {
    "id": 23,
    "name": "Sensor 23",
    "highway": "US-101",
    "lat": 37.33530287576602,
    "lon": -122.17631973226688,
    "direction": "NB"
  },
  "24": {
    "id": 24,
    "name": "Sensor 24",
    "highway": "I-80",
    "lat": 37.796721793882725,
    "lon": -122.33749132792603,
    "direction": "EB"
  },
  "25": {
    "id": 25,
    "name": "Sensor 25",
    "highway": "I-880",
    "lat": 37.44505989831062,
    "lon": -122.09315693924228,
    "direction": "NB"
  },
  "26": {
    "id": 26,
    "name": "Sensor 26",
    "highway": "I-280",
    "lat": 37.32842739344655,
    "lon": -122.2881103023911,
    "direction": "NB"
  },
  "27": {
    "id": 27,
    "name": "Sensor 27",
    "highway": "US-101",
    "lat": 37.31609668168881,
    "lon": -122.20579240224741,
    "direction": "NB"
  },
  "28": {
    "id": 28,
    "name": "Sensor 28",
    "highway": "I-80",
    "lat": 37.82752577730103,
    "lon": -122.35474668122177,
    "direction": "EB"
  },
  "29": {
    "id": 29,
    "name": "Sensor 29",
    "highway": "I-880",
    "lat": 37.4418690038627,
    "lon": -122.0716770767263,
    "direction": "NB"
  },
  "30": {
    "id": 30,
    "name": "Sensor 30",
    "highway": "I-280",
    "lat": 37.311284389853974,
    "lon": -122.2999720315504,
    "direction": "NB"
  },
  "31": {
    "id": 31,
    "name": "Sensor 31",
    "highway": "US-101",
    "lat": 37.362312154536355,
    "lon": -122.18949967679602,
    "direction": "NB"
  },
  "32": {
    "id": 32,
    "name": "Sensor 32",
    "highway": "I-80",
    "lat": 37.816007766350445,
    "lon": -122.34143620565638,
    "direction": "EB"
  },
  "33": {
    "id": 33,
    "name": "Sensor 33",
    "highway": "I-880",
    "lat": 37.450812129355285,
    "lon": -122.06416691961849,
    "direction": "NB"
  },
  "34": {
    "id": 34,
    "name": "Sensor 34",
    "highway": "I-280",
    "lat": 37.341660730051466,
    "lon": -122.29082469444138,
    "direction": "NB"
  },
  "35": {
    "id": 35,
    "name": "Sensor 35",
    "highway": "US-101",
    "lat": 37.34651196528728,
    "lon": -122.1915539553308,
    "direction": "NB"
  },
  "36": {
    "id": 36,
    "name": "Sensor 36",
    "highway": "I-80",
    "lat": 37.80330159757954,
    "lon": -122.32584306100455,
    "direction": "EB"
  },
  "37": {
    "id": 37,
    "name": "Sensor 37",
    "highway": "I-880",
    "lat": 37.49207070295657,
    "lon": -122.09412632826094,
    "direction": "NB"
  },
  "38": {
    "id": 38,
    "name": "Sensor 38",
    "highway": "I-280",
    "lat": 37.32272081726103,
    "lon": -122.27458041429885,
    "direction": "NB"
  },
  "39": {
    "id": 39,
    "name": "Sensor 39",
    "highway": "US-101",
    "lat": 37.384388130061126,
    "lon": -122.1718697171269,
    "direction": "NB"
  },
  "40": {
    "id": 40,
    "name": "Sensor 40",
    "highway": "I-80",
    "lat": 37.80939399000068,
    "lon": -122.33020329176564,
    "direction": "EB"
  },
  "41": {
    "id": 41,
    "name": "Sensor 41",
    "highway": "I-880",
    "lat": 37.45883942758587,
    "lon": -122.10169418204445,
    "direction": "NB"
  },
  "42": {
    "id": 42,
    "name": "Sensor 42",
    "highway": "I-280",
    "lat": 37.3856143006581,
    "lon": -122.27048536508508,
    "direction": "NB"
  },
  "43": {
    "id": 43,
    "name": "Sensor 43",
    "highway": "US-101",
    "lat": 37.35356607946682,
    "lon": -122.19671732673804,
    "direction": "NB"
  },
  "44": {
    "id": 44,
    "name": "Sensor 44",
    "highway": "I-80",
    "lat": 37.821770547860936,
    "lon": -122.31480305641391,
    "direction": "EB"
  },
  "45": {
    "id": 45,
    "name": "Sensor 45",
    "highway": "I-880",
    "lat": 37.45825625061742,
    "lon": -122.0973675553089,
    "direction": "NB"
  },
  "46": {
    "id": 46,
    "name": "Sensor 46",
    "highway": "I-280",
    "lat": 37.38114368667526,
    "lon": -122.26233444399666,
    "direction": "NB"
  },
  "47": {
    "id": 47,
    "name": "Sensor 47",
    "highway": "US-101",
    "lat": 37.404140721757635,
    "lon": -122.17894119754716,
    "direction": "NB"
  },
  "48": {
    "id": 48,
    "name": "Sensor 48",
    "highway": "I-80",
    "lat": 37.81043043060373,
    "lon": -122.3395126881628,
    "direction": "EB"
  },
  "49": {
    "id": 49,
    "name": "Sensor 49",
    "highway": "I-880",
    "lat": 37.43997427972906,
    "lon": -122.0673294453948,
    "direction": "NB"
  },
  "50": {
    "id": 50,
    "name": "Sensor 50",
    "highway": "I-280",
    "lat": 37.36814257205997,
    "lon": -122.26291896700496,
    "direction": "NB"
  },
  "51": {
    "id": 51,
    "name": "Sensor 51",
    "highway": "US-101",
    "lat": 37.38802406515908,
    "lon": -122.1892455305604,
    "direction": "NB"
  },
  "52": {
    "id": 52,
    "name": "Sensor 52",
    "highway": "I-80",
    "lat": 37.80786471167578,
    "lon": -122.29446196983305,
    "direction": "EB"
  },
  "53": {
    "id": 53,
    "name": "Sensor 53",
    "highway": "I-880",
    "lat": 37.468190655060056,
    "lon": -122.07106025230756,
    "direction": "NB"
  },
  "54": {
    "id": 54,
    "name": "Sensor 54",
    "highway": "I-280",
    "lat": 37.3656653535459,
    "lon": -122.25963830700242,
    "direction": "NB"
  },
  "55": {
    "id": 55,
    "name": "Sensor 55",
    "highway": "US-101",
    "lat": 37.40099671836546,
    "lon": -122.17146951508676,
    "direction": "NB"
  },
  "56": {
    "id": 56,
    "name": "Sensor 56",
    "highway": "I-80",
    "lat": 37.82561068989851,
    "lon": -122.30556330846868,
    "direction": "EB"
  },
  "57": {
    "id": 57,
    "name": "Sensor 57",
    "highway": "I-880",
    "lat": 37.501531548170995,
    "lon": -122.08007335326883,
    "direction": "NB"
  },
  "58": {
    "id": 58,
    "name": "Sensor 58",
    "highway": "I-280",
    "lat": 37.410475308156144,
    "lon": -122.25220336638992,
    "direction": "NB"
  },
  "59": {
    "id": 59,
    "name": "Sensor 59",
    "highway": "US-101",
    "lat": 37.41745530712066,
    "lon": -122.19261341990185,
    "direction": "NB"
  },
  "60": {
    "id": 60,
    "name": "Sensor 60",
    "highway": "I-80",
    "lat": 37.806624704823676,
    "lon": -122.28428124366046,
    "direction": "EB"
  },
  "61": {
    "id": 61,
    "name": "Sensor 61",
    "highway": "I-880",
    "lat": 37.486283781823026,
    "lon": -122.07015529856044,
    "direction": "NB"
  },
  "62": {
    "id": 62,
    "name": "Sensor 62",
    "highway": "I-280",
    "lat": 37.38578235090732,
    "lon": -122.26637950518021,
    "direction": "NB"
  },
  "63": {
    "id": 63,
    "name": "Sensor 63",
    "highway": "US-101",
    "lat": 37.41752207698533,
    "lon": -122.18712353224977,
    "direction": "NB"
  },
  "64": {
    "id": 64,
    "name": "Sensor 64",
    "highway": "I-80",
    "lat": 37.827522533647986,
    "lon": -122.29258241727184,
    "direction": "EB"
  },
  "65": {
    "id": 65,
    "name": "Sensor 65",
    "highway": "I-880",
    "lat": 37.479291864587424,
    "lon": -122.0865942351559,
    "direction": "NB"
  },
  "66": {
    "id": 66,
    "name": "Sensor 66",
    "highway": "I-280",
    "lat": 37.42062506290548,
    "lon": -122.23941946781228,
    "direction": "NB"
  },
  "67": {
    "id": 67,
    "name": "Sensor 67",
    "highway": "US-101",
    "lat": 37.42807664413427,
    "lon": -122.17735251918192,
    "direction": "NB"
  },
  "68": {
    "id": 68,
    "name": "Sensor 68",
    "highway": "I-80",
    "lat": 37.81313510999823,
    "lon": -122.30244705414661,
    "direction": "EB"
  },
  "69": {
    "id": 69,
    "name": "Sensor 69",
    "highway": "I-880",
    "lat": 37.46653864843761,
    "lon": -122.08527169392848,
    "direction": "NB"
  },
  "70": {
    "id": 70,
    "name": "Sensor 70",
    "highway": "I-280",
    "lat": 37.40735457713909,
    "lon": -122.26455400987577,
    "direction": "NB"
  },
  "71": {
    "id": 71,
    "name": "Sensor 71",
    "highway": "US-101",
    "lat": 37.428379142961155,
    "lon": -122.15900544734941,
    "direction": "NB"
  },
  "72": {
    "id": 72,
    "name": "Sensor 72",
    "highway": "I-80",
    "lat": 37.79952031126042,
    "lon": -122.29594970206914,
    "direction": "EB"
  },
  "73": {
    "id": 73,
    "name": "Sensor 73",
    "highway": "I-880",
    "lat": 37.51262490682775,
    "lon": -122.0698564024841,
    "direction": "NB"
  },
  "74": {
    "id": 74,
    "name": "Sensor 74",
    "highway": "I-280",
    "lat": 37.42181877788855,
    "lon": -122.25584245052494,
    "direction": "NB"
  },
  "75": {
    "id": 75,
    "name": "Sensor 75",
    "highway": "US-101",
    "lat": 37.42111669240962,
    "lon": -122.17017921268263,
    "direction": "NB"
  },
  "76": {
    "id": 76,
    "name": "Sensor 76",
    "highway": "I-80",
    "lat": 37.829877813478134,
    "lon": -122.29169171426149,
    "direction": "EB"
  },
  "77": {
    "id": 77,
    "name": "Sensor 77",
    "highway": "I-880",
    "lat": 37.52629773702703,
    "lon": -122.0844839728125,
    "direction": "NB"
  },
  "78": {
    "id": 78,
    "name": "Sensor 78",
    "highway": "I-280",
    "lat": 37.41631232124112,
    "lon": -122.26073964126442,
    "direction": "NB"
  },
  "79": {
    "id": 79,
    "name": "Sensor 79",
    "highway": "US-101",
    "lat": 37.44842842069531,
    "lon": -122.15147670014784,
    "direction": "NB"
  },
  "80": {
    "id": 80,
    "name": "Sensor 80",
    "highway": "I-80",
    "lat": 37.841795261805174,
    "lon": -122.28012436576903,
    "direction": "EB"
  },
  "81": {
    "id": 81,
    "name": "Sensor 81",
    "highway": "I-880",
    "lat": 37.50413407967902,
    "lon": -122.07066291593092,
    "direction": "NB"
  },
  "82": {
    "id": 82,
    "name": "Sensor 82",
    "highway": "I-280",
    "lat": 37.43039528475589,
    "lon": -122.24864362052602,
    "direction": "NB"
  },
  "83": {
    "id": 83,
    "name": "Sensor 83",
    "highway": "US-101",
    "lat": 37.44909251404143,
    "lon": -122.15322841906588,
    "direction": "NB"
  },
  "84": {
    "id": 84,
    "name": "Sensor 84",
    "highway": "I-80",
    "lat": 37.819863509494006,
    "lon": -122.29352567549907,
    "direction": "EB"
  },
  "85": {
    "id": 85,
    "name": "Sensor 85",
    "highway": "I-880",
    "lat": 37.499835025288654,
    "lon": -122.0812453340751,
    "direction": "NB"
  },
  "86": {
    "id": 86,
    "name": "Sensor 86",
    "highway": "I-280",
    "lat": 37.45294682810542,
    "lon": -122.26172588855518,
    "direction": "NB"
  },
  "87": {
    "id": 87,
    "name": "Sensor 87",
    "highway": "US-101",
    "lat": 37.44955744725516,
    "lon": -122.15178130416477,
    "direction": "NB"
  },
  "88": {
    "id": 88,
    "name": "Sensor 88",
    "highway": "I-80",
    "lat": 37.839726720586434,
    "lon": -122.23344238902358,
    "direction": "EB"
  },
  "89": {
    "id": 89,
    "name": "Sensor 89",
    "highway": "I-880",
    "lat": 37.51244874643176,
    "lon": -122.06712391123949,
    "direction": "NB"
  },
  "90": {
    "id": 90,
    "name": "Sensor 90",
    "highway": "I-280",
    "lat": 37.43148201627775,
    "lon": -122.25089907013327,
    "direction": "NB"
  },
  "91": {
    "id": 91,
    "name": "Sensor 91",
    "highway": "US-101",
    "lat": 37.471732840090695,
    "lon": -122.16934899374043,
    "direction": "NB"
  },
  "92": {
    "id": 92,
    "name": "Sensor 92",
    "highway": "I-80",
    "lat": 37.83210187454351,
    "lon": -122.27032835789508,
    "direction": "EB"
  },
  "93": {
    "id": 93,
    "name": "Sensor 93",
    "highway": "I-880",
    "lat": 37.53215442612413,
    "lon": -122.08016908942008,
    "direction": "NB"
  },
  "94": {
    "id": 94,
    "name": "Sensor 94",
    "highway": "I-280",
    "lat": 37.411277275897866,
    "lon": -122.2490814261131,
    "direction": "NB"
  },
  "95": {
    "id": 95,
    "name": "Sensor 95",
    "highway": "US-101",
    "lat": 37.457868573695755,
    "lon": -122.15349450616446,
    "direction": "NB"
  },
  "96": {
    "id": 96,
    "name": "Sensor 96",
    "highway": "I-80",
    "lat": 37.84268608284674,
    "lon": -122.28329534306819,
    "direction": "EB"
  },
  "97": {
    "id": 97,
    "name": "Sensor 97",
    "highway": "I-880",
    "lat": 37.5545429597472,
    "lon": -122.079150364207,
    "direction": "NB"
  },
  "98": {
    "id": 98,
    "name": "Sensor 98",
    "highway": "I-280",
    "lat": 37.437241619743425,
    "lon": -122.23201447073573,
    "direction": "NB"
  },
  "99": {
    "id": 99,
    "name": "Sensor 99",
    "highway": "US-101",
    "lat": 37.5139228030058,
    "lon": -122.17017807230476,
    "direction": "NB"
  },
  "100": {
    "id": 100,
    "name": "Sensor 100",
    "highway": "I-80",
    "lat": 37.830498809705354,
    "lon": -122.20831915783788,
    "direction": "EB"
  },
  "101": {
    "id": 101,
    "name": "Sensor 101",
    "highway": "I-880",
    "lat": 37.51970326913836,
    "lon": -122.05882581676686,
    "direction": "NB"
  },
  "102": {
    "id": 102,
    "name": "Sensor 102",
    "highway": "I-280",
    "lat": 37.4644563918844,
    "lon": -122.24803353898692,
    "direction": "NB"
  },
  "103": {
    "id": 103,
    "name": "Sensor 103",
    "highway": "US-101",
    "lat": 37.45713033012586,
    "lon": -122.15390583817168,
    "direction": "NB"
  },
  "104": {
    "id": 104,
    "name": "Sensor 104",
    "highway": "I-80",
    "lat": 37.83279285827352,
    "lon": -122.22478381772825,
    "direction": "EB"
  },
  "105": {
    "id": 105,
    "name": "Sensor 105",
    "highway": "I-880",
    "lat": 37.553157321613526,
    "lon": -122.08196810011904,
    "direction": "NB"
  },
  "106": {
    "id": 106,
    "name": "Sensor 106",
    "highway": "I-280",
    "lat": 37.48252635852771,
    "lon": -122.22934679774761,
    "direction": "NB"
  },
  "107": {
    "id": 107,
    "name": "Sensor 107",
    "highway": "US-101",
    "lat": 37.487681616100986,
    "lon": -122.15408945879622,
    "direction": "NB"
  },
  "108": {
    "id": 108,
    "name": "Sensor 108",
    "highway": "I-80",
    "lat": 37.82716877672726,
    "lon": -122.24131742264828,
    "direction": "EB"
  },
  "109": {
    "id": 109,
    "name": "Sensor 109",
    "highway": "I-880",
    "lat": 37.55405998445093,
    "lon": -122.06067674431216,
    "direction": "NB"
  },
  "110": {
    "id": 110,
    "name": "Sensor 110",
    "highway": "I-280",
    "lat": 37.44798615601022,
    "lon": -122.2373458135974,
    "direction": "NB"
  },
  "111": {
    "id": 111,
    "name": "Sensor 111",
    "highway": "US-101",
    "lat": 37.46894462676229,
    "lon": -122.14619955882999,
    "direction": "NB"
  },
  "112": {
    "id": 112,
    "name": "Sensor 112",
    "highway": "I-80",
    "lat": 37.83561031817634,
    "lon": -122.22777987887184,
    "direction": "EB"
  },
  "113": {
    "id": 113,
    "name": "Sensor 113",
    "highway": "I-880",
    "lat": 37.5646949194701,
    "lon": -122.07886733427098,
    "direction": "NB"
  },
  "114": {
    "id": 114,
    "name": "Sensor 114",
    "highway": "I-280",
    "lat": 37.48048979888189,
    "lon": -122.23062620985317,
    "direction": "NB"
  },
  "115": {
    "id": 115,
    "name": "Sensor 115",
    "highway": "US-101",
    "lat": 37.50056975691304,
    "lon": -122.15564090462497,
    "direction": "NB"
  },
  "116": {
    "id": 116,
    "name": "Sensor 116",
    "highway": "I-80",
    "lat": 37.82277839532755,
    "lon": -122.20866959192631,
    "direction": "EB"
  },
  "117": {
    "id": 117,
    "name": "Sensor 117",
    "highway": "I-880",
    "lat": 37.62055198860331,
    "lon": -122.05833998192196,
    "direction": "NB"
  },
  "118": {
    "id": 118,
    "name": "Sensor 118",
    "highway": "I-280",
    "lat": 37.48135962305678,
    "lon": -122.24322020377934,
    "direction": "NB"
  },
  "119": {
    "id": 119,
    "name": "Sensor 119",
    "highway": "US-101",
    "lat": 37.522147718091446,
    "lon": -122.14235515185284,
    "direction": "NB"
  },
  "120": {
    "id": 120,
    "name": "Sensor 120",
    "highway": "I-80",
    "lat": 37.84093854392174,
    "lon": -122.22725507873284,
    "direction": "EB"
  },
  "121": {
    "id": 121,
    "name": "Sensor 121",
    "highway": "I-880",
    "lat": 37.56736622690961,
    "lon": -122.05219965330105,
    "direction": "NB"
  },
  "122": {
    "id": 122,
    "name": "Sensor 122",
    "highway": "I-280",
    "lat": 37.511704942963476,
    "lon": -122.21654667174842,
    "direction": "NB"
  },
  "123": {
    "id": 123,
    "name": "Sensor 123",
    "highway": "US-101",
    "lat": 37.524134032105685,
    "lon": -122.13920097947637,
    "direction": "NB"
  },
  "124": {
    "id": 124,
    "name": "Sensor 124",
    "highway": "I-80",
    "lat": 37.855077446108254,
    "lon": -122.24715630074878,
    "direction": "EB"
  },
  "125": {
    "id": 125,
    "name": "Sensor 125",
    "highway": "I-880",
    "lat": 37.590445069326,
    "lon": -122.0586304357751,
    "direction": "NB"
  },
  "126": {
    "id": 126,
    "name": "Sensor 126",
    "highway": "I-280",
    "lat": 37.49226284212054,
    "lon": -122.21663546101394,
    "direction": "NB"
  },
  "127": {
    "id": 127,
    "name": "Sensor 127",
    "highway": "US-101",
    "lat": 37.53864548206973,
    "lon": -122.15686440606626,
    "direction": "NB"
  },
  "128": {
    "id": 128,
    "name": "Sensor 128",
    "highway": "I-80",
    "lat": 37.855347869066705,
    "lon": -122.19500786318802,
    "direction": "EB"
  },
  "129": {
    "id": 129,
    "name": "Sensor 129",
    "highway": "I-880",
    "lat": 37.60891005274148,
    "lon": -122.07712804821179,
    "direction": "NB"
  },
  "130": {
    "id": 130,
    "name": "Sensor 130",
    "highway": "I-280",
    "lat": 37.486811086934985,
    "lon": -122.24560369019308,
    "direction": "NB"
  },
  "131": {
    "id": 131,
    "name": "Sensor 131",
    "highway": "US-101",
    "lat": 37.525765090790266,
    "lon": -122.13797737138498,
    "direction": "NB"
  },
  "132": {
    "id": 132,
    "name": "Sensor 132",
    "highway": "I-80",
    "lat": 37.835060746825356,
    "lon": -122.17138846781056,
    "direction": "EB"
  },
  "133": {
    "id": 133,
    "name": "Sensor 133",
    "highway": "I-880",
    "lat": 37.57452364643066,
    "lon": -122.06280126390376,
    "direction": "NB"
  },
  "134": {
    "id": 134,
    "name": "Sensor 134",
    "highway": "I-280",
    "lat": 37.50138533232502,
    "lon": -122.22505549153367,
    "direction": "NB"
  },
  "135": {
    "id": 135,
    "name": "Sensor 135",
    "highway": "US-101",
    "lat": 37.54357081487236,
    "lon": -122.12968693491202,
    "direction": "NB"
  },
  "136": {
    "id": 136,
    "name": "Sensor 136",
    "highway": "I-80",
    "lat": 37.83195231132018,
    "lon": -122.19069890174451,
    "direction": "EB"
  },
  "137": {
    "id": 137,
    "name": "Sensor 137",
    "highway": "I-880",
    "lat": 37.60044930040918,
    "lon": -122.05707812338072,
    "direction": "NB"
  },
  "138": {
    "id": 138,
    "name": "Sensor 138",
    "highway": "I-280",
    "lat": 37.51312224069982,
    "lon": -122.22858479896686,
    "direction": "NB"
  },
  "139": {
    "id": 139,
    "name": "Sensor 139",
    "highway": "US-101",
    "lat": 37.5646450723447,
    "lon": -122.13170818472643,
    "direction": "NB"
  },
  "140": {
    "id": 140,
    "name": "Sensor 140",
    "highway": "I-80",
    "lat": 37.83349036146737,
    "lon": -122.15834209620488,
    "direction": "EB"
  },
  "141": {
    "id": 141,
    "name": "Sensor 141",
    "highway": "I-880",
    "lat": 37.61240243896082,
    "lon": -122.04260944709557,
    "direction": "NB"
  },
  "142": {
    "id": 142,
    "name": "Sensor 142",
    "highway": "I-280",
    "lat": 37.52505491679915,
    "lon": -122.21241476240453,
    "direction": "NB"
  },
  "143": {
    "id": 143,
    "name": "Sensor 143",
    "highway": "US-101",
    "lat": 37.53649433982177,
    "lon": -122.14818916592847,
    "direction": "NB"
  },
  "144": {
    "id": 144,
    "name": "Sensor 144",
    "highway": "I-80",
    "lat": 37.84588889431771,
    "lon": -122.17957024171815,
    "direction": "EB"
  },
  "145": {
    "id": 145,
    "name": "Sensor 145",
    "highway": "I-880",
    "lat": 37.62502701702852,
    "lon": -122.06861959410936,
    "direction": "NB"
  },
  "146": {
    "id": 146,
    "name": "Sensor 146",
    "highway": "I-280",
    "lat": 37.527373832681825,
    "lon": -122.20587608308185,
    "direction": "NB"
  },
  "147": {
    "id": 147,
    "name": "Sensor 147",
    "highway": "US-101",
    "lat": 37.574828327701546,
    "lon": -122.13841600725671,
    "direction": "NB"
  },
  "148": {
    "id": 148,
    "name": "Sensor 148",
    "highway": "I-80",
    "lat": 37.85965502319364,
    "lon": -122.2317546457777,
    "direction": "EB"
  },
  "149": {
    "id": 149,
    "name": "Sensor 149",
    "highway": "I-880",
    "lat": 37.62052393799351,
    "lon": -122.04272564063221,
    "direction": "NB"
  },
  "150": {
    "id": 150,
    "name": "Sensor 150",
    "highway": "I-280",
    "lat": 37.54272346425928,
    "lon": -122.195135335236,
    "direction": "NB"
  },
  "151": {
    "id": 151,
    "name": "Sensor 151",
    "highway": "US-101",
    "lat": 37.54319474272494,
    "lon": -122.1293677734911,
    "direction": "NB"
  },
  "152": {
    "id": 152,
    "name": "Sensor 152",
    "highway": "I-80",
    "lat": 37.850256764933256,
    "lon": -122.15454212008717,
    "direction": "EB"
  },
  "153": {
    "id": 153,
    "name": "Sensor 153",
    "highway": "I-880",
    "lat": 37.660966747517016,
    "lon": -122.06589838003576,
    "direction": "NB"
  },
  "154": {
    "id": 154,
    "name": "Sensor 154",
    "highway": "I-280",
    "lat": 37.54340528643269,
    "lon": -122.20773605780862,
    "direction": "NB"
  },
  "155": {
    "id": 155,
    "name": "Sensor 155",
    "highway": "US-101",
    "lat": 37.59199412385071,
    "lon": -122.14181292344978,
    "direction": "NB"
  },
  "156": {
    "id": 156,
    "name": "Sensor 156",
    "highway": "I-80",
    "lat": 37.85249123523769,
    "lon": -122.16605343845481,
    "direction": "EB"
  },
  "157": {
    "id": 157,
    "name": "Sensor 157",
    "highway": "I-880",
    "lat": 37.60883447732514,
    "lon": -122.06162314065608,
    "direction": "NB"
  },
  "158": {
    "id": 158,
    "name": "Sensor 158",
    "highway": "I-280",
    "lat": 37.55887124299021,
    "lon": -122.22298891845881,
    "direction": "NB"
  },
  "159": {
    "id": 159,
    "name": "Sensor 159",
    "highway": "US-101",
    "lat": 37.58768704747352,
    "lon": -122.11891728864394,
    "direction": "NB"
  },
  "160": {
    "id": 160,
    "name": "Sensor 160",
    "highway": "I-80",
    "lat": 37.849905887353366,
    "lon": -122.1629102280799,
    "direction": "EB"
  },
  "161": {
    "id": 161,
    "name": "Sensor 161",
    "highway": "I-880",
    "lat": 37.633426824380194,
    "lon": -122.05162154288685,
    "direction": "NB"
  },
  "162": {
    "id": 162,
    "name": "Sensor 162",
    "highway": "I-280",
    "lat": 37.55952122659912,
    "lon": -122.20279041022312,
    "direction": "NB"
  },
  "163": {
    "id": 163,
    "name": "Sensor 163",
    "highway": "US-101",
    "lat": 37.57493599876627,
    "lon": -122.12669625248162,
    "direction": "NB"
  },
  "164": {
    "id": 164,
    "name": "Sensor 164",
    "highway": "I-80",
    "lat": 37.84913138687546,
    "lon": -122.14353583701161,
    "direction": "EB"
  },
  "165": {
    "id": 165,
    "name": "Sensor 165",
    "highway": "I-880",
    "lat": 37.64655828003252,
    "lon": -122.04978817255424,
    "direction": "NB"
  },
  "166": {
    "id": 166,
    "name": "Sensor 166",
    "highway": "I-280",
    "lat": 37.557642037037645,
    "lon": -122.17993753513929,
    "direction": "NB"
  },
  "167": {
    "id": 167,
    "name": "Sensor 167",
    "highway": "US-101",
    "lat": 37.58655983793466,
    "lon": -122.13692185083656,
    "direction": "NB"
  },
  "168": {
    "id": 168,
    "name": "Sensor 168",
    "highway": "I-80",
    "lat": 37.85799281541567,
    "lon": -122.1607965927122,
    "direction": "EB"
  },
  "169": {
    "id": 169,
    "name": "Sensor 169",
    "highway": "I-880",
    "lat": 37.66553890869398,
    "lon": -122.04818723373522,
    "direction": "NB"
  },
  "170": {
    "id": 170,
    "name": "Sensor 170",
    "highway": "I-280",
    "lat": 37.53840855683211,
    "lon": -122.19438275806574,
    "direction": "NB"
  },
  "171": {
    "id": 171,
    "name": "Sensor 171",
    "highway": "US-101",
    "lat": 37.60042868148997,
    "lon": -122.13274902051558,
    "direction": "NB"
  },
  "172": {
    "id": 172,
    "name": "Sensor 172",
    "highway": "I-80",
    "lat": 37.83813002468521,
    "lon": -122.12877294922066,
    "direction": "EB"
  },
  "173": {
    "id": 173,
    "name": "Sensor 173",
    "highway": "I-880",
    "lat": 37.65952502866489,
    "lon": -122.0350439212058,
    "direction": "NB"
  },
  "174": {
    "id": 174,
    "name": "Sensor 174",
    "highway": "I-280",
    "lat": 37.5360403088806,
    "lon": -122.19463205083647,
    "direction": "NB"
  },
  "175": {
    "id": 175,
    "name": "Sensor 175",
    "highway": "US-101",
    "lat": 37.60062874929727,
    "lon": -122.1324565019484,
    "direction": "NB"
  },
  "176": {
    "id": 176,
    "name": "Sensor 176",
    "highway": "I-80",
    "lat": 37.85503859016404,
    "lon": -122.16802973545246,
    "direction": "EB"
  },
  "177": {
    "id": 177,
    "name": "Sensor 177",
    "highway": "I-880",
    "lat": 37.66932822840893,
    "lon": -122.05919335385599,
    "direction": "NB"
  },
  "178": {
    "id": 178,
    "name": "Sensor 178",
    "highway": "I-280",
    "lat": 37.56485332287507,
    "lon": -122.19911118125447,
    "direction": "NB"
  },
  "179": {
    "id": 179,
    "name": "Sensor 179",
    "highway": "US-101",
    "lat": 37.62866876273176,
    "lon": -122.11997118031412,
    "direction": "NB"
  },
  "180": {
    "id": 180,
    "name": "Sensor 180",
    "highway": "I-80",
    "lat": 37.857589065308396,
    "lon": -122.09013064347694,
    "direction": "EB"
  },
  "181": {
    "id": 181,
    "name": "Sensor 181",
    "highway": "I-880",
    "lat": 37.671024754324414,
    "lon": -122.04432848833763,
    "direction": "NB"
  },
  "182": {
    "id": 182,
    "name": "Sensor 182",
    "highway": "I-280",
    "lat": 37.57614927337505,
    "lon": -122.1899080788394,
    "direction": "NB"
  },
  "183": {
    "id": 183,
    "name": "Sensor 183",
    "highway": "US-101",
    "lat": 37.61997235319428,
    "lon": -122.11731823753182,
    "direction": "NB"
  },
  "184": {
    "id": 184,
    "name": "Sensor 184",
    "highway": "I-80",
    "lat": 37.84587226800755,
    "lon": -122.07444504232987,
    "direction": "EB"
  },
  "185": {
    "id": 185,
    "name": "Sensor 185",
    "highway": "I-880",
    "lat": 37.68959403533071,
    "lon": -122.06163002010005,
    "direction": "NB"
  },
  "186": {
    "id": 186,
    "name": "Sensor 186",
    "highway": "I-280",
    "lat": 37.555447395235866,
    "lon": -122.1909626525185,
    "direction": "NB"
  },
  "187": {
    "id": 187,
    "name": "Sensor 187",
    "highway": "US-101",
    "lat": 37.65950853348311,
    "lon": -122.11035153192338,
    "direction": "NB"
  },
  "188": {
    "id": 188,
    "name": "Sensor 188",
    "highway": "I-80",
    "lat": 37.848107347301685,
    "lon": -122.07779399537043,
    "direction": "EB"
  },
  "189": {
    "id": 189,
    "name": "Sensor 189",
    "highway": "I-880",
    "lat": 37.67610917256321,
    "lon": -122.03871681455438,
    "direction": "NB"
  },
  "190": {
    "id": 190,
    "name": "Sensor 190",
    "highway": "I-280",
    "lat": 37.607530503227636,
    "lon": -122.18958722420123,
    "direction": "NB"
  },
  "191": {
    "id": 191,
    "name": "Sensor 191",
    "highway": "US-101",
    "lat": 37.62676607611373,
    "lon": -122.10550186533084,
    "direction": "NB"
  },
  "192": {
    "id": 192,
    "name": "Sensor 192",
    "highway": "I-80",
    "lat": 37.8698443628247,
    "lon": -122.07453421954321,
    "direction": "EB"
  },
  "193": {
    "id": 193,
    "name": "Sensor 193",
    "highway": "I-880",
    "lat": 37.67180718314631,
    "lon": -122.02677963221085,
    "direction": "NB"
  },
  "194": {
    "id": 194,
    "name": "Sensor 194",
    "highway": "I-280",
    "lat": 37.61732822126683,
    "lon": -122.1793367795571,
    "direction": "NB"
  },
  "195": {
    "id": 195,
    "name": "Sensor 195",
    "highway": "US-101",
    "lat": 37.635260529307374,
    "lon": -122.09854099338797,
    "direction": "NB"
  },
  "196": {
    "id": 196,
    "name": "Sensor 196",
    "highway": "I-80",
    "lat": 37.862157375963434,
    "lon": -122.08516817997928,
    "direction": "EB"
  },
  "197": {
    "id": 197,
    "name": "Sensor 197",
    "highway": "I-880",
    "lat": 37.7530133800637,
    "lon": -122.01864630102686,
    "direction": "NB"
  },
  "198": {
    "id": 198,
    "name": "Sensor 198",
    "highway": "I-280",
    "lat": 37.64251174803001,
    "lon": -122.18006275303033,
    "direction": "NB"
  },
  "199": {
    "id": 199,
    "name": "Sensor 199",
    "highway": "US-101",
    "lat": 37.654330144981934,
    "lon": -122.1043504467446,
    "direction": "NB"
  },
  "200": {
    "id": 200,
    "name": "Sensor 200",
    "highway": "I-80",
    "lat": 37.87449080898327,
    "lon": -122.07639877712236,
    "direction": "EB"
  },
  "201": {
    "id": 201,
    "name": "Sensor 201",
    "highway": "I-880",
    "lat": 37.71809904608581,
    "lon": -122.04770539137773,
    "direction": "NB"
  },
  "202": {
    "id": 202,
    "name": "Sensor 202",
    "highway": "I-280",
    "lat": 37.61766589252425,
    "lon": -122.1749819541713,
    "direction": "NB"
  },
  "203": {
    "id": 203,
    "name": "Sensor 203",
    "highway": "US-101",
    "lat": 37.663999309399514,
    "lon": -122.126387362509,
    "direction": "NB"
  },
  "204": {
    "id": 204,
    "name": "Sensor 204",
    "highway": "I-80",
    "lat": 37.8601377869373,
    "lon": -122.07743391368196,
    "direction": "EB"
  },
  "205": {
    "id": 205,
    "name": "Sensor 205",
    "highway": "I-880",
    "lat": 37.716949584935314,
    "lon": -122.0543122955667,
    "direction": "NB"
  },
  "206": {
    "id": 206,
    "name": "Sensor 206",
    "highway": "I-280",
    "lat": 37.63524625895602,
    "lon": -122.18874618459387,
    "direction": "NB"
  },
  "207": {
    "id": 207,
    "name": "Sensor 207",
    "highway": "US-101",
    "lat": 37.638156719071546,
    "lon": -122.11327791799489,
    "direction": "NB"
  },
  "208": {
    "id": 208,
    "name": "Sensor 208",
    "highway": "I-80",
    "lat": 37.850842873431475,
    "lon": -122.0950755693595,
    "direction": "EB"
  },
  "209": {
    "id": 209,
    "name": "Sensor 209",
    "highway": "I-880",
    "lat": 37.701791550174676,
    "lon": -122.04286309446363,
    "direction": "NB"
  },
  "210": {
    "id": 210,
    "name": "Sensor 210",
    "highway": "I-280",
    "lat": 37.640674497707,
    "lon": -122.16095610612145,
    "direction": "NB"
  },
  "211": {
    "id": 211,
    "name": "Sensor 211",
    "highway": "US-101",
    "lat": 37.698858876790865,
    "lon": -122.08758498957444,
    "direction": "NB"
  },
  "212": {
    "id": 212,
    "name": "Sensor 212",
    "highway": "I-80",
    "lat": 37.8635428038886,
    "lon": -122.06032964712337,
    "direction": "EB"
  },
  "213": {
    "id": 213,
    "name": "Sensor 213",
    "highway": "I-880",
    "lat": 37.713415781197064,
    "lon": -122.03100949092695,
    "direction": "NB"
  },
  "214": {
    "id": 214,
    "name": "Sensor 214",
    "highway": "I-280",
    "lat": 37.66750883341983,
    "lon": -122.18314359324361,
    "direction": "NB"
  },
  "215": {
    "id": 215,
    "name": "Sensor 215",
    "highway": "US-101",
    "lat": 37.68708570667204,
    "lon": -122.09317596956446,
    "direction": "NB"
  },
  "216": {
    "id": 216,
    "name": "Sensor 216",
    "highway": "I-80",
    "lat": 37.85967086782802,
    "lon": -122.0910742871532,
    "direction": "EB"
  },
  "217": {
    "id": 217,
    "name": "Sensor 217",
    "highway": "I-880",
    "lat": 37.75406890759646,
    "lon": -122.04249676154663,
    "direction": "NB"
  },
  "218": {
    "id": 218,
    "name": "Sensor 218",
    "highway": "I-280",
    "lat": 37.65953655961422,
    "lon": -122.15535170774372,
    "direction": "NB"
  },
  "219": {
    "id": 219,
    "name": "Sensor 219",
    "highway": "US-101",
    "lat": 37.70166004932105,
    "lon": -122.10322797733957,
    "direction": "NB"
  },
  "220": {
    "id": 220,
    "name": "Sensor 220",
    "highway": "I-80",
    "lat": 37.867520706439706,
    "lon": -122.05619670855341,
    "direction": "EB"
  },
  "221": {
    "id": 221,
    "name": "Sensor 221",
    "highway": "I-880",
    "lat": 37.734473660106936,
    "lon": -122.0227745956646,
    "direction": "NB"
  },
  "222": {
    "id": 222,
    "name": "Sensor 222",
    "highway": "I-280",
    "lat": 37.64732510535214,
    "lon": -122.16257585442469,
    "direction": "NB"
  },
  "223": {
    "id": 223,
    "name": "Sensor 223",
    "highway": "US-101",
    "lat": 37.67589684929783,
    "lon": -122.08400019455345,
    "direction": "NB"
  },
  "224": {
    "id": 224,
    "name": "Sensor 224",
    "highway": "I-80",
    "lat": 37.85932742735263,
    "lon": -122.0686084298588,
    "direction": "EB"
  },
  "225": {
    "id": 225,
    "name": "Sensor 225",
    "highway": "I-880",
    "lat": 37.747158486646285,
    "lon": -122.02412129567315,
    "direction": "NB"
  },
  "226": {
    "id": 226,
    "name": "Sensor 226",
    "highway": "I-280",
    "lat": 37.63529464389814,
    "lon": -122.155811273924,
    "direction": "NB"
  },
  "227": {
    "id": 227,
    "name": "Sensor 227",
    "highway": "US-101",
    "lat": 37.7140981308899,
    "lon": -122.10111944325764,
    "direction": "NB"
  },
  "228": {
    "id": 228,
    "name": "Sensor 228",
    "highway": "I-80",
    "lat": 37.891948335579286,
    "lon": -122.05759293084579,
    "direction": "EB"
  },
  "229": {
    "id": 229,
    "name": "Sensor 229",
    "highway": "I-880",
    "lat": 37.72988742262425,
    "lon": -122.03824638215578,
    "direction": "NB"
  },
  "230": {
    "id": 230,
    "name": "Sensor 230",
    "highway": "I-280",
    "lat": 37.630800248365276,
    "lon": -122.1705622520762,
    "direction": "NB"
  },
  "231": {
    "id": 231,
    "name": "Sensor 231",
    "highway": "US-101",
    "lat": 37.74123947255234,
    "lon": -122.09460160492388,
    "direction": "NB"
  },
  "232": {
    "id": 232,
    "name": "Sensor 232",
    "highway": "I-80",
    "lat": 37.858666611057274,
    "lon": -122.03293238599746,
    "direction": "EB"
  },
  "233": {
    "id": 233,
    "name": "Sensor 233",
    "highway": "I-880",
    "lat": 37.75597233352216,
    "lon": -122.03304738861863,
    "direction": "NB"
  },
  "234": {
    "id": 234,
    "name": "Sensor 234",
    "highway": "I-280",
    "lat": 37.63050381639008,
    "lon": -122.15967129052382,
    "direction": "NB"
  },
  "235": {
    "id": 235,
    "name": "Sensor 235",
    "highway": "US-101",
    "lat": 37.727587149830214,
    "lon": -122.09921401157462,
    "direction": "NB"
  },
  "236": {
    "id": 236,
    "name": "Sensor 236",
    "highway": "I-80",
    "lat": 37.87762677764234,
    "lon": -122.0652160830289,
    "direction": "EB"
  },
  "237": {
    "id": 237,
    "name": "Sensor 237",
    "highway": "I-880",
    "lat": 37.814216724712786,
    "lon": -122.02122163312269,
    "direction": "NB"
  },
  "238": {
    "id": 238,
    "name": "Sensor 238",
    "highway": "I-280",
    "lat": 37.65372702089893,
    "lon": -122.14436846678412,
    "direction": "NB"
  },
  "239": {
    "id": 239,
    "name": "Sensor 239",
    "highway": "US-101",
    "lat": 37.72369522207943,
    "lon": -122.08458440080364,
    "direction": "NB"
  },
  "240": {
    "id": 240,
    "name": "Sensor 240",
    "highway": "I-80",
    "lat": 37.87658999291096,
    "lon": -122.05890478887393,
    "direction": "EB"
  },
  "241": {
    "id": 241,
    "name": "Sensor 241",
    "highway": "I-880",
    "lat": 37.80765469515928,
    "lon": -122.02547869234533,
    "direction": "NB"
  },
  "242": {
    "id": 242,
    "name": "Sensor 242",
    "highway": "I-280",
    "lat": 37.67979817686932,
    "lon": -122.12527907883019,
    "direction": "NB"
  },
  "243": {
    "id": 243,
    "name": "Sensor 243",
    "highway": "US-101",
    "lat": 37.7497694485606,
    "lon": -122.07192269532311,
    "direction": "NB"
  },
  "244": {
    "id": 244,
    "name": "Sensor 244",
    "highway": "I-80",
    "lat": 37.867804115758155,
    "lon": -122.05889798341505,
    "direction": "EB"
  },
  "245": {
    "id": 245,
    "name": "Sensor 245",
    "highway": "I-880",
    "lat": 37.767048259858804,
    "lon": -122.01325178322189,
    "direction": "NB"
  },
  "246": {
    "id": 246,
    "name": "Sensor 246",
    "highway": "I-280",
    "lat": 37.69023101172098,
    "lon": -122.14484512900843,
    "direction": "NB"
  },
  "247": {
    "id": 247,
    "name": "Sensor 247",
    "highway": "US-101",
    "lat": 37.741051469387735,
    "lon": -122.0766374867045,
    "direction": "NB"
  },
  "248": {
    "id": 248,
    "name": "Sensor 248",
    "highway": "I-80",
    "lat": 37.88452726482181,
    "lon": -122.0928354660008,
    "direction": "EB"
  },
  "249": {
    "id": 249,
    "name": "Sensor 249",
    "highway": "I-880",
    "lat": 37.752189403993256,
    "lon": -122.01884228378962,
    "direction": "NB"
  },
  "250": {
    "id": 250,
    "name": "Sensor 250",
    "highway": "I-280",
    "lat": 37.693647841397784,
    "lon": -122.14367071130248,
    "direction": "NB"
  },
  "251": {
    "id": 251,
    "name": "Sensor 251",
    "highway": "US-101",
    "lat": 37.78153294066456,
    "lon": -122.08724884855809,
    "direction": "NB"
  },
  "252": {
    "id": 252,
    "name": "Sensor 252",
    "highway": "I-80",
    "lat": 37.864605934756796,
    "lon": -122.06195300629263,
    "direction": "EB"
  },
  "253": {
    "id": 253,
    "name": "Sensor 253",
    "highway": "I-880",
    "lat": 37.80158418396356,
    "lon": -122.02183875094235,
    "direction": "NB"
  },
  "254": {
    "id": 254,
    "name": "Sensor 254",
    "highway": "I-280",
    "lat": 37.72186021130726,
    "lon": -122.15057105000096,
    "direction": "NB"
  },
  "255": {
    "id": 255,
    "name": "Sensor 255",
    "highway": "US-101",
    "lat": 37.75680661669545,
    "lon": -122.0785716423667,
    "direction": "NB"
  },
  "256": {
    "id": 256,
    "name": "Sensor 256",
    "highway": "I-80",
    "lat": 37.893248558689855,
    "lon": -121.99858700889841,
    "direction": "EB"
  },
  "257": {
    "id": 257,
    "name": "Sensor 257",
    "highway": "I-880",
    "lat": 37.82883236847662,
    "lon": -122.02594087606698,
    "direction": "NB"
  },
  "258": {
    "id": 258,
    "name": "Sensor 258",
    "highway": "I-280",
    "lat": 37.680448355969446,
    "lon": -122.13754645019644,
    "direction": "NB"
  },
  "259": {
    "id": 259,
    "name": "Sensor 259",
    "highway": "US-101",
    "lat": 37.77228648373767,
    "lon": -122.09447700423178,
    "direction": "NB"
  },
  "260": {
    "id": 260,
    "name": "Sensor 260",
    "highway": "I-80",
    "lat": 37.871803054561056,
    "lon": -121.97768782089821,
    "direction": "EB"
  },
  "261": {
    "id": 261,
    "name": "Sensor 261",
    "highway": "I-880",
    "lat": 37.8041327942055,
    "lon": -121.99959407907245,
    "direction": "NB"
  },
  "262": {
    "id": 262,
    "name": "Sensor 262",
    "highway": "I-280",
    "lat": 37.705343840460905,
    "lon": -122.15306186774771,
    "direction": "NB"
  },
  "263": {
    "id": 263,
    "name": "Sensor 263",
    "highway": "US-101",
    "lat": 37.782085906172526,
    "lon": -122.07298276672978,
    "direction": "NB"
  },
  "264": {
    "id": 264,
    "name": "Sensor 264",
    "highway": "I-80",
    "lat": 37.87807367220615,
    "lon": -122.00905995909122,
    "direction": "EB"
  },
  "265": {
    "id": 265,
    "name": "Sensor 265",
    "highway": "I-880",
    "lat": 37.779675528694085,
    "lon": -122.0143252849893,
    "direction": "NB"
  },
  "266": {
    "id": 266,
    "name": "Sensor 266",
    "highway": "I-280",
    "lat": 37.70864553917015,
    "lon": -122.13203027275031,
    "direction": "NB"
  },
  "267": {
    "id": 267,
    "name": "Sensor 267",
    "highway": "US-101",
    "lat": 37.76692208079618,
    "lon": -122.08378304278394,
    "direction": "NB"
  },
  "268": {
    "id": 268,
    "name": "Sensor 268",
    "highway": "I-80",
    "lat": 37.87451454131321,
    "lon": -121.97796752982562,
    "direction": "EB"
  },
  "269": {
    "id": 269,
    "name": "Sensor 269",
    "highway": "I-880",
    "lat": 37.838018216227105,
    "lon": -122.0272865655386,
    "direction": "NB"
  },
  "270": {
    "id": 270,
    "name": "Sensor 270",
    "highway": "I-280",
    "lat": 37.702209889246035,
    "lon": -122.14029245542297,
    "direction": "NB"
  },
  "271": {
    "id": 271,
    "name": "Sensor 271",
    "highway": "US-101",
    "lat": 37.80167112748835,
    "lon": -122.08880805857608,
    "direction": "NB"
  },
  "272": {
    "id": 272,
    "name": "Sensor 272",
    "highway": "I-80",
    "lat": 37.89426425474905,
    "lon": -121.98894258669426,
    "direction": "EB"
  },
  "273": {
    "id": 273,
    "name": "Sensor 273",
    "highway": "I-880",
    "lat": 37.825049819362846,
    "lon": -122.01049237109807,
    "direction": "NB"
  },
  "274": {
    "id": 274,
    "name": "Sensor 274",
    "highway": "I-280",
    "lat": 37.71438205163129,
    "lon": -122.13614220283134,
    "direction": "NB"
  },
  "275": {
    "id": 275,
    "name": "Sensor 275",
    "highway": "US-101",
    "lat": 37.78827522558986,
    "lon": -122.05933884224213,
    "direction": "NB"
  },
  "276": {
    "id": 276,
    "name": "Sensor 276",
    "highway": "I-80",
    "lat": 37.87897870695402,
    "lon": -121.98320813259181,
    "direction": "EB"
  },
  "277": {
    "id": 277,
    "name": "Sensor 277",
    "highway": "I-880",
    "lat": 37.819983396581094,
    "lon": -122.01896796760602,
    "direction": "NB"
  },
  "278": {
    "id": 278,
    "name": "Sensor 278",
    "highway": "I-280",
    "lat": 37.74137584582126,
    "lon": -122.1339539216268,
    "direction": "NB"
  },
  "279": {
    "id": 279,
    "name": "Sensor 279",
    "highway": "US-101",
    "lat": 37.78072225782851,
    "lon": -122.0824551485614,
    "direction": "NB"
  },
  "280": {
    "id": 280,
    "name": "Sensor 280",
    "highway": "I-80",
    "lat": 37.882458122295326,
    "lon": -121.94593323074369,
    "direction": "EB"
  },
  "281": {
    "id": 281,
    "name": "Sensor 281",
    "highway": "I-880",
    "lat": 37.812372633205236,
    "lon": -122.02126739751522,
    "direction": "NB"
  },
  "282": {
    "id": 282,
    "name": "Sensor 282",
    "highway": "I-280",
    "lat": 37.74443937518081,
    "lon": -122.13593248174183,
    "direction": "NB"
  },
  "283": {
    "id": 283,
    "name": "Sensor 283",
    "highway": "US-101",
    "lat": 37.81142027436126,
    "lon": -122.04483410595226,
    "direction": "NB"
  },
  "284": {
    "id": 284,
    "name": "Sensor 284",
    "highway": "I-80",
    "lat": 37.8950840832639,
    "lon": -121.98950146088825,
    "direction": "EB"
  },
  "285": {
    "id": 285,
    "name": "Sensor 285",
    "highway": "I-880",
    "lat": 37.81579165612622,
    "lon": -121.9953476676588,
    "direction": "NB"
  },
  "286": {
    "id": 286,
    "name": "Sensor 286",
    "highway": "I-280",
    "lat": 37.70667971728501,
    "lon": -122.11444742286938,
    "direction": "NB"
  },
  "287": {
    "id": 287,
    "name": "Sensor 287",
    "highway": "US-101",
    "lat": 37.852986359105266,
    "lon": -122.08559636516256,
    "direction": "NB"
  },
  "288": {
    "id": 288,
    "name": "Sensor 288",
    "highway": "I-80",
    "lat": 37.86119305627454,
    "lon": -121.96036723113569,
    "direction": "EB"
  },
  "289": {
    "id": 289,
    "name": "Sensor 289",
    "highway": "I-880",
    "lat": 37.82873669589662,
    "lon": -122.00622270200772,
    "direction": "NB"
  },
  "290": {
    "id": 290,
    "name": "Sensor 290",
    "highway": "I-280",
    "lat": 37.75333590158737,
    "lon": -122.13185573783865,
    "direction": "NB"
  },
  "291": {
    "id": 291,
    "name": "Sensor 291",
    "highway": "US-101",
    "lat": 37.83645341625155,
    "lon": -122.05804301944215,
    "direction": "NB"
  },
  "292": {
    "id": 292,
    "name": "Sensor 292",
    "highway": "I-80",
    "lat": 37.88763845359773,
    "lon": -121.95457723409135,
    "direction": "EB"
  },
  "293": {
    "id": 293,
    "name": "Sensor 293",
    "highway": "I-880",
    "lat": 37.84823976048699,
    "lon": -122.00649329332359,
    "direction": "NB"
  },
  "294": {
    "id": 294,
    "name": "Sensor 294",
    "highway": "I-280",
    "lat": 37.77076029129512,
    "lon": -122.12749357971279,
    "direction": "NB"
  },
  "295": {
    "id": 295,
    "name": "Sensor 295",
    "highway": "US-101",
    "lat": 37.8499210095563,
    "lon": -122.06089469982305,
    "direction": "NB"
  },
  "296": {
    "id": 296,
    "name": "Sensor 296",
    "highway": "I-80",
    "lat": 37.88606837177731,
    "lon": -121.97787380135367,
    "direction": "EB"
  },
  "297": {
    "id": 297,
    "name": "Sensor 297",
    "highway": "I-880",
    "lat": 37.83793494251478,
    "lon": -122.0186001232168,
    "direction": "NB"
  },
  "298": {
    "id": 298,
    "name": "Sensor 298",
    "highway": "I-280",
    "lat": 37.71773765498119,
    "lon": -122.09811927713048,
    "direction": "NB"
  },
  "299": {
    "id": 299,
    "name": "Sensor 299",
    "highway": "US-101",
    "lat": 37.83484096957544,
    "lon": -122.05256534298069,
    "direction": "NB"
  },
  "300": {
    "id": 300,
    "name": "Sensor 300",
    "highway": "I-80",
    "lat": 37.89933585206363,
    "lon": -121.93844572302068,
    "direction": "EB"
  },
  "301": {
    "id": 301,
    "name": "Sensor 301",
    "highway": "I-880",
    "lat": 37.85633363417491,
    "lon": -121.99931286320812,
    "direction": "NB"
  },
  "302": {
    "id": 302,
    "name": "Sensor 302",
    "highway": "I-280",
    "lat": 37.780307486522,
    "lon": -122.12964148280865,
    "direction": "NB"
  },
  "303": {
    "id": 303,
    "name": "Sensor 303",
    "highway": "US-101",
    "lat": 37.82123899406534,
    "lon": -122.06421631486016,
    "direction": "NB"
  },
  "304": {
    "id": 304,
    "name": "Sensor 304",
    "highway": "I-80",
    "lat": 37.883965103408975,
    "lon": -121.93590782257007,
    "direction": "EB"
  },
  "305": {
    "id": 305,
    "name": "Sensor 305",
    "highway": "I-880",
    "lat": 37.91161435763704,
    "lon": -121.99934315153803,
    "direction": "NB"
  },
  "306": {
    "id": 306,
    "name": "Sensor 306",
    "highway": "I-280",
    "lat": 37.78782048835887,
    "lon": -122.09922719662119,
    "direction": "NB"
  },
  "307": {
    "id": 307,
    "name": "Sensor 307",
    "highway": "US-101",
    "lat": 37.82794842583321,
    "lon": -122.05636587196842,
    "direction": "NB"
  },
  "308": {
    "id": 308,
    "name": "Sensor 308",
    "highway": "I-80",
    "lat": 37.91441854408344,
    "lon": -121.9,
    "direction": "EB"
  },
  "309": {
    "id": 309,
    "name": "Sensor 309",
    "highway": "I-880",
    "lat": 37.89800408536937,
    "lon": -122.01045427897415,
    "direction": "NB"
  },
  "310": {
    "id": 310,
    "name": "Sensor 310",
    "highway": "I-280",
    "lat": 37.804269137790264,
    "lon": -122.11338212371291,
    "direction": "NB"
  },
  "311": {
    "id": 311,
    "name": "Sensor 311",
    "highway": "US-101",
    "lat": 37.8741370633265,
    "lon": -122.04647876334799,
    "direction": "NB"
  },
  "312": {
    "id": 312,
    "name": "Sensor 312",
    "highway": "I-80",
    "lat": 37.89810375281629,
    "lon": -121.91206863119848,
    "direction": "EB"
  },
  "313": {
    "id": 313,
    "name": "Sensor 313",
    "highway": "I-880",
    "lat": 37.88381619186068,
    "lon": -122.01362730155238,
    "direction": "NB"
  },
  "314": {
    "id": 314,
    "name": "Sensor 314",
    "highway": "I-280",
    "lat": 37.79725225286949,
    "lon": -122.10018004477236,
    "direction": "NB"
  },
  "315": {
    "id": 315,
    "name": "Sensor 315",
    "highway": "US-101",
    "lat": 37.83105017813077,
    "lon": -122.05236904884624,
    "direction": "NB"
  },
  "316": {
    "id": 316,
    "name": "Sensor 316",
    "highway": "I-80",
    "lat": 37.89753153658747,
    "lon": -121.90847759497456,
    "direction": "EB"
  },
  "317": {
    "id": 317,
    "name": "Sensor 317",
    "highway": "I-880",
    "lat": 37.90831824967363,
    "lon": -121.99977069322539,
    "direction": "NB"
  },
  "318": {
    "id": 318,
    "name": "Sensor 318",
    "highway": "I-280",
    "lat": 37.78984597505829,
    "lon": -122.09376269117125,
    "direction": "NB"
  },
  "319": {
    "id": 319,
    "name": "Sensor 319",
    "highway": "US-101",
    "lat": 37.87332874650663,
    "lon": -122.05732613125879,
    "direction": "NB"
  },
  "320": {
    "id": 320,
    "name": "Sensor 320",
    "highway": "I-80",
    "lat": 37.88446620434407,
    "lon": -121.9,
    "direction": "EB"
  },
  "321": {
    "id": 321,
    "name": "Sensor 321",
    "highway": "I-880",
    "lat": 37.90762655421202,
    "lon": -121.99521919459212,
    "direction": "NB"
  },
  "322": {
    "id": 322,
    "name": "Sensor 322",
    "highway": "I-280",
    "lat": 37.78466034285415,
    "lon": -122.09153153620181,
    "direction": "NB"
  },
  "323": {
    "id": 323,
    "name": "Sensor 323",
    "highway": "US-101",
    "lat": 37.9030312805551,
    "lon": -122.06666021907796,
    "direction": "NB"
  },
  "324": {
    "id": 324,
    "name": "Sensor 324",
    "highway": "I-80",
    "lat": 37.91004964333843,
    "lon": -121.9,
    "direction": "EB"
  }
}